OBJECT_NAME,OBJECT_ID,EPOCH,MEAN_MOTION,ECCENTRICITY,INCLINATION,RA_OF_ASC_NODE,ARG_OF_PERICENTER,MEAN_ANOMALY,EPHEMERIS_TYPE,CLASSIFICATION_TYPE,NORAD_CAT_ID,ELEMENT_SET_NO,REV_AT_EPOCH,BSTAR,MEAN_MOTION_DOT,MEAN_MOTION_DDOT
STARLINK-31649,2024-062S,2026-07-09T00:42:30.523680,15.34400566,.00013569,53.1609,51.0221,84.9513,275.1644,0,U,59390,999,12826,-.78106556E-4,-.3014E-4,0
STARLINK-31644,2024-062T,2026-07-09T00:55:26.238432,15.34394216,.00012444,53.1605,53.2111,75.0060,285.1081,0,U,59391,999,12823,.46536408E-4,.1196E-4,0
STARLINK-31626,2024-062U,2026-07-08T23:45:04.072608,15.34407290,.0001292,53.1616,51.4819,79.6714,280.4435,0,U,59392,999,12825,.10633353E-3,.3219E-4,0
STARLINK-31443,2024-062V,2026-07-08T21:18:55.528416,15.34408626,.00007428,53.1602,37.8880,93.6966,266.4121,0,U,59393,999,12843,.40429844E-4,.991E-5,0
STARLINK-31607,2024-062W,2026-07-08T21:53:05.904096,15.34405058,.00015079,53.1606,51.7047,94.0336,266.0839,0,U,59394,999,12823,.99841682E-4,.2999E-4,0
STARLINK-31608,2024-062X,2026-07-09T00:03:14.602176,15.34412107,.00013098,53.1601,51.5604,73.2901,286.8245,0,U,59397,999,12820,.11362455E-3,.3466E-4,0
STARLINK-31534,2024-064A,2026-07-08T02:08:29.015808,15.27586686,.00013653,43.0026,95.8512,259.4204,100.6494,0,U,59398,999,12758,.85479284E-4,.2091E-4,0
STARLINK-31544,2024-064B,2026-07-09T02:54:51.521760,15.27578278,.00014591,43.0072,90.6977,258.9618,101.1070,0,U,59399,999,12779,.55741964E-4,.1272E-4,0
STARLINK-31545,2024-064C,2026-07-09T01:57:28.905984,15.27589322,.00007005,43.0011,90.3971,286.4865,73.5909,0,U,59400,999,12779,.20403126E-4,.3E-5,0
STARLINK-31507,2024-064D,2026-07-09T02:06:45.438624,15.27466831,.00005696,43.0042,90.4397,228.4443,131.6360,0,U,59401,999,12773,.97513421E-3,.26576E-3,0
STARLINK-31543,2024-064E,2026-07-09T01:09:36.165600,15.27581052,.00010226,43.0063,91.0087,270.0759,89.9976,0,U,59402,999,12778,-.15114953E-3,-.4419E-4,0
STARLINK-31366,2024-064F,2026-07-09T02:23:25.681056,15.27472765,.00005213,43.0059,90.5298,222.8334,137.2477,0,U,59403,999,12779,.9948455E-3,.27125E-3,0
STARLINK-31374,2024-064G,2026-07-08T07:03:50.683104,15.27603037,.00011575,43.0013,44.0027,279.2804,80.7917,0,U,59404,999,12800,-.17630136E-3,-.5114E-4,0
STARLINK-31400,2024-064H,2026-07-09T01:46:23.006496,15.27590051,.00011555,42.9985,90.3396,268.1161,91.9558,0,U,59405,999,12779,.60485729E-4,.1403E-4,0
STARLINK-31391,2024-064J,2026-07-09T01:51:54.756576,15.27591736,.00037429,43.0034,90.3640,258.3411,101.7021,0,U,59406,999,12779,.20169611E-3,.5294E-4,0
STARLINK-31387,2024-064K,2026-07-08T23:40:59.012832,15.27581893,.00012869,43.0049,91.4074,275.3463,84.7242,0,U,59407,999,12777,.36816818E-4,.751E-5,0
STARLINK-31396,2024-064M,2026-07-09T02:08:48.515424,15.27600520,.00015199,43.0050,80.0633,249.8130,110.2558,0,U,59409,999,12785,-.11721113E-3,-.3488E-4,0
STARLINK-31412,2024-064N,2026-07-09T02:17:50.106912,15.27589052,.00016455,43.0036,90.5021,267.7267,92.3397,0,U,59410,999,12779,-.3501527E-5,-.359E-5,0
STARLINK-31483,2024-064P,2026-07-09T02:34:29.354880,15.27579180,.00014856,43.0026,90.5905,302.3216,57.7492,0,U,59411,999,12779,.53486996E-4,.121E-4,0
STARLINK-31568,2024-064Q,2026-07-09T02:38:11.633568,15.27589464,.00008587,43.0042,90.6060,247.7609,112.3152,0,U,59412,999,12779,.23364676E-4,.381E-5,0
STARLINK-31615,2024-064R,2026-07-09T02:13:03.898272,15.28901054,.0003536,43.0024,83.5308,253.3912,106.6552,0,U,59413,999,12787,.19342762E-3,.5281E-4,0
STARLINK-31457,2024-064S,2026-07-08T23:23:51.536256,15.27628698,.00022626,43.0014,84.3655,241.6638,118.3986,0,U,59414,999,12785,-.27160591E-3,-.774E-4,0
STARLINK-31398,2024-064T,2026-07-08T23:03:57.642048,15.27594747,.00012619,43.0023,91.2097,268.8490,91.2217,0,U,59415,999,12777,-.5010326E-5,-.4E-5,0
STARLINK-31399,2024-064U,2026-07-08T22:54:43.429248,15.27587640,.00003007,42.9974,91.1547,345.4596,14.6247,0,U,59416,999,12777,-.12696895E-4,-.611E-5,0
STARLINK-31401,2024-064V,2026-07-09T02:22:55.529184,15.27582317,.00012713,43.0046,83.6037,285.0304,75.0407,0,U,59417,999,12762,.7078188E-4,.1686E-4,0
STARLINK-31414,2024-064W,2026-07-09T02:28:56.027136,15.27583607,.00014429,43.0043,90.5628,272.1833,87.8854,0,U,59418,999,12779,.32351218E-4,.628E-5,0
STARLINK-31415,2024-064X,2026-07-09T03:05:55.869504,15.27590989,.00015012,43.0043,90.7553,257.8919,102.1764,0,U,59419,999,12779,.6698205E-4,.1582E-4,0
STARLINK-31466,2024-064Y,2026-07-09T03:00:23.366016,15.27588354,.00008852,43.0041,90.7253,323.7897,36.2895,0,U,59420,999,12779,.73601412E-4,.1764E-4,0
STARLINK-11087 [DTC],2024-065A,2026-07-09T01:24:32.895648,15.69714688,.00012618,53.1586,215.7129,81.9289,278.1872,0,U,59421,999,13057,.15132653E-4,.1245E-4,0
STARLINK-11090 [DTC],2024-065B,2026-07-08T02:08:06.986400,15.69711830,.00014875,53.1594,220.3215,124.8493,235.2665,0,U,59422,999,13044,.8721357E-5,.468E-5,0
