STARLINK-31649          
1 59390U 24062S   26190.02951995 -.00003014  00000+0 -78107-4 0  9994
2 59390  53.1609  51.0221 0001356  84.9513 275.1644 15.34400566128260
STARLINK-31644          
1 59391U 24062T   26190.03849813  .00001196  00000+0  46536-4 0  9999
2 59391  53.1605  53.2111 0001244  75.0060 285.1081 15.34394216128230
STARLINK-31626          
1 59392U 24062U   26189.98963047  .00003219  00000+0  10633-3 0  9994
2 59392  53.1616  51.4819 0001292  79.6714 280.4435 15.34407290128257
STARLINK-31443          
1 59393U 24062V   26189.88814269  .00000991  00000+0  40430-4 0  9998
2 59393  53.1602  37.8880 0000742  93.6966 266.4121 15.34408626128433
STARLINK-31607          
1 59394U 24062W   26189.91187389  .00002999  00000+0  99842-4 0  9990
2 59394  53.1606  51.7047 0001507  94.0336 266.0839 15.34405058128230
STARLINK-31608          
1 59397U 24062X   26190.00225234  .00003466  00000+0  11362-3 0  9997
2 59397  53.1601  51.5604 0001309  73.2901 286.8245 15.34412107128203
STARLINK-31534          
1 59398U 24064A   26189.08922472  .00002091  00000+0  85479-4 0  9998
2 59398  43.0026  95.8512 0001365 259.4204 100.6494 15.27586686127583
STARLINK-31544          
1 59399U 24064B   26190.12142965  .00001272  00000+0  55742-4 0  9997
2 59399  43.0072  90.6977 0001459 258.9618 101.1070 15.27578278127797
STARLINK-31545          
1 59400U 24064C   26190.08158456  .00000300  00000+0  20403-4 0  9994
2 59400  43.0011  90.3971 0000700 286.4865  73.5909 15.27589322127797
STARLINK-31507          
1 59401U 24064D   26190.08802591  .00026576  00000+0  97513-3 0  9999
2 59401  43.0042  90.4397 0000569 228.4443 131.6360 15.27466831127736
STARLINK-31543          
1 59402U 24064E   26190.04833525 -.00004419  00000+0 -15115-3 0  9999
2 59402  43.0063  91.0087 0001022 270.0759  89.9976 15.27581052127787
STARLINK-31366          
1 59403U 24064F   26190.09960279  .00027125  00000+0  99485-3 0  9991
2 59403  43.0059  90.5298 0000521 222.8334 137.2477 15.27472765127792
STARLINK-31374          
1 59404U 24064G   26189.29433661 -.00005114  00000+0 -17630-3 0  9990
2 59404  43.0013  44.0027 0001157 279.2804  80.7917 15.27603037128005
STARLINK-31400          
1 59405U 24064H   26190.07387739  .00001403  00000+0  60486-4 0  9996
2 59405  42.9985  90.3396 0001155 268.1161  91.9558 15.27590051127797
STARLINK-31391          
1 59406U 24064J   26190.07771709  .00005294  00000+0  20170-3 0  9998
2 59406  43.0034  90.3640 0003742 258.3411 101.7021 15.27591736127796
STARLINK-31387          
1 59407U 24064K   26189.98679413  .00000751  00000+0  36817-4 0  9995
2 59407  43.0049  91.4074 0001286 275.3463  84.7242 15.27581893127779
STARLINK-31396          
1 59409U 24064M   26190.08945041 -.00003488  00000+0 -11721-3 0  9991
2 59409  43.0050  80.0633 0001519 249.8130 110.2558 15.27600520127857
STARLINK-31412          
1 59410U 24064N   26190.09571883 -.00000359  00000+0 -35015-5 0  9991
2 59410  43.0036  90.5021 0001645 267.7267  92.3397 15.27589052127790
STARLINK-31483          
1 59411U 24064P   26190.10728420  .00001210  00000+0  53487-4 0  9992
2 59411  43.0026  90.5905 0001485 302.3216  57.7492 15.27579180127795
STARLINK-31568          
1 59412U 24064Q   26190.10985687  .00000381  00000+0  23365-4 0  9993
2 59412  43.0042  90.6060 0000858 247.7609 112.3152 15.27589464127795
STARLINK-31615          
1 59413U 24064R   26190.09240623  .00005281  00000+0  19343-3 0  9990
2 59413  43.0024  83.5308 0003536 253.3912 106.6552 15.28901054127871
STARLINK-31457          
1 59414U 24064S   26189.97490204 -.00007740  00000+0 -27161-3 0  9999
2 59414  43.0014  84.3655 0002262 241.6638 118.3986 15.27628698127853
STARLINK-31398          
1 59415U 24064T   26189.96108382 -.00000400  00000+0 -50103-5 0  9992
2 59415  43.0023  91.2097 0001261 268.8490  91.2217 15.27594747127770
STARLINK-31399          
1 59416U 24064U   26189.95466932 -.00000611  00000+0 -12697-4 0  9999
2 59416  42.9974  91.1547 0000300 345.4596  14.6247 15.27587640127771
STARLINK-31401          
1 59417U 24064V   26190.09925381  .00001686  00000+0  70782-4 0  9995
2 59417  43.0046  83.6037 0001271 285.0304  75.0407 15.27582317127627
STARLINK-31414          
1 59418U 24064W   26190.10342624  .00000628  00000+0  32351-4 0  9996
2 59418  43.0043  90.5628 0001442 272.1833  87.8854 15.27583607127790
STARLINK-31415          
1 59419U 24064X   26190.12911886  .00001582  00000+0  66982-4 0  9998
2 59419  43.0043  90.7553 0001501 257.8919 102.1764 15.27590989127793
STARLINK-31466          
1 59420U 24064Y   26190.12527044  .00001764  00000+0  73601-4 0  9997
2 59420  43.0041  90.7253 0000885 323.7897  36.2895 15.27588354127797
STARLINK-11087 [DTC]    
1 59421U 24065A   26190.05871407  .00001245  00000+0  15133-4 0  9996
2 59421  53.1586 215.7129 0001261  81.9289 278.1872 15.69714688130571
STARLINK-11090 [DTC]    
1 59422U 24065B   26189.08896975  .00000468  00000+0  87214-5 0  9991
2 59422  53.1594 220.3215 0001487 124.8493 235.2665 15.69711830130449
